{
  "type": "FeatureCollection",
  "features": [
    {
      "type": "Feature",
      "properties": {
        "norad_id": 34340,
        "name": "COSMOS 2251 DEB",
        "group": "cosmos-2251-debris",
        "lat": -2.43628597984875,
        "lon": -60.3124013421748,
        "alt_km": 829.7917055580929,
        "timestamp": "2025-12-17T07:00:47.303400+00:00",
        "meta_object_name": "COSMOS 2251 DEB",
        "meta_object_id": "1993-036PN",
        "meta_epoch": "2025-12-16T22:35:07.959840",
        "meta_mean_motion": 13.79588609,
        "meta_eccentricity": 0.02831894,
        "meta_inclination": 74.0791,
        "meta_ra_of_asc_node": 300.9697,
        "meta_arg_of_pericenter": 47.7539,
        "meta_mean_anomaly": 8.935,
        "meta_ephemeris_type": 0,
        "meta_classification_type": "U",
        "meta_norad_cat_id": 34340,
        "meta_element_set_no": 999,
        "meta_rev_at_epoch": 84326,
        "meta_bstar": 0.0013393147,
        "meta_mean_motion_dot": 1.845e-05,
        "meta_mean_motion_ddot": 0,
        "tle_line1": "1 34340U 93036PN  25350.94106435  .00001845  00000+0  13393-2 0  9990",
        "tle_line2": "2 34340  74.0791 300.9697 0283189  47.7539   8.9350 13.79588609843268"
      },
      "geometry": {
        "type": "Point",
        "coordinates": [
          -60.3124013421748,
          -2.43628597984875
        ]
      }
    },
    {
      "type": "Feature",
      "properties": {
        "norad_id": 34343,
        "name": "COSMOS 2251 DEB",
        "group": "cosmos-2251-debris",
        "lat": 67.91999560141976,
        "lon": -144.2164647358463,
        "alt_km": 661.7222218846864,
        "timestamp": "2025-12-17T07:00:47.303411+00:00",
        "meta_object_name": "COSMOS 2251 DEB",
        "meta_object_id": "1993-036PR",
        "meta_epoch": "2025-12-16T16:21:48.601728",
        "meta_mean_motion": 14.69505858,
        "meta_eccentricity": 0.0023711,
        "meta_inclination": 74.0203,
        "meta_ra_of_asc_node": 81.9096,
        "meta_arg_of_pericenter": 355.3252,
        "meta_mean_anomaly": 121.9942,
        "meta_ephemeris_type": 0,
        "meta_classification_type": "U",
        "meta_norad_cat_id": 34343,
        "meta_element_set_no": 999,
        "meta_rev_at_epoch": 88788,
        "meta_bstar": 0.00097217069,
        "meta_mean_motion_dot": 5.763e-05,
        "meta_mean_motion_ddot": 0,
        "tle_line1": "1 34343U 93036PR  25350.68181252  .00005763  00000+0  97217-3 0  9995",
        "tle_line2": "2 34343  74.0203  81.9096 0023711 355.3252 121.9942 14.69505858887885"
      },
      "geometry": {
        "type": "Point",
        "coordinates": [
          -144.2164647358463,
          67.91999560141976
        ]
      }
    },
    {
      "type": "Feature",
      "properties": {
        "norad_id": 34344,
        "name": "COSMOS 2251 DEB",
        "group": "cosmos-2251-debris",
        "lat": 55.279156889776914,
        "lon": 126.71805868653783,
        "alt_km": 908.2325059353916,
        "timestamp": "2025-12-17T07:00:47.303422+00:00",
        "meta_object_name": "COSMOS 2251 DEB",
        "meta_object_id": "1993-036PS",
        "meta_epoch": "2025-12-16T17:46:09.359904",
        "meta_mean_motion": 14.16440188,
        "meta_eccentricity": 0.01560961,
        "meta_inclination": 73.9781,
        "meta_ra_of_asc_node": 103.2054,
        "meta_arg_of_pericenter": 286.5462,
        "meta_mean_anomaly": 198.2087,
        "meta_ephemeris_type": 0,
        "meta_classification_type": "U",
        "meta_norad_cat_id": 34344,
        "meta_element_set_no": 999,
        "meta_rev_at_epoch": 86153,
        "meta_bstar": 0.0015601329,
        "meta_mean_motion_dot": 3.469e-05,
        "meta_mean_motion_ddot": 0,
        "tle_line1": "1 34344U 93036PS  25350.74038611  .00003469  00000+0  15601-2 0  9990",
        "tle_line2": "2 34344  73.9781 103.2054 0156096 286.5462 198.2087 14.16440188861535"
      },
      "geometry": {
        "type": "Point",
        "coordinates": [
          126.71805868653783,
          55.279156889776914
        ]
      }
    },
    {
      "type": "Feature",
      "properties": {
        "norad_id": 34346,
        "name": "COSMOS 2251 DEB",
        "group": "cosmos-2251-debris",
        "lat": -69.87519836437076,
        "lon": 175.90880922006946,
        "alt_km": 1007.039674323948,
        "timestamp": "2025-12-17T07:00:47.303432+00:00",
        "meta_object_name": "COSMOS 2251 DEB",
        "meta_object_id": "1993-036PU",
        "meta_epoch": "2025-12-16T08:05:16.951200",
        "meta_mean_motion": 13.99703788,
        "meta_eccentricity": 0.02061805,
        "meta_inclination": 73.9948,
        "meta_ra_of_asc_node": 306.0041,
        "meta_arg_of_pericenter": 124.0573,
        "meta_mean_anomaly": 0.4999,
        "meta_ephemeris_type": 0,
        "meta_classification_type": "U",
        "meta_norad_cat_id": 34346,
        "meta_element_set_no": 999,
        "meta_rev_at_epoch": 85460,
        "meta_bstar": 0.00067394044,
        "meta_mean_motion_dot": 1.162e-05,
        "meta_mean_motion_ddot": 0,
        "tle_line1": "1 34346U 93036PU  25350.33700175  .00001162  00000+0  67394-3 0  9993",
        "tle_line2": "2 34346  73.9948 306.0041 0206180 124.0573   0.4999 13.99703788854604"
      },
      "geometry": {
        "type": "Point",
        "coordinates": [
          175.90880922006946,
          -69.87519836437076
        ]
      }
    },
    {
      "type": "Feature",
      "properties": {
        "norad_id": 34383,
        "name": "COSMOS 2251 DEB",
        "group": "cosmos-2251-debris",
        "lat": 73.6991978622344,
        "lon": 6.764762401709268,
        "alt_km": 529.2446182239319,
        "timestamp": "2025-12-17T07:00:47.303443+00:00",
        "meta_object_name": "COSMOS 2251 DEB",
        "meta_object_id": "1993-036PY",
        "meta_epoch": "2025-12-16T21:19:57.305280",
        "meta_mean_motion": 15.09361567,
        "meta_eccentricity": 0.00027102,
        "meta_inclination": 74.0224,
        "meta_ra_of_asc_node": 289.1407,
        "meta_arg_of_pericenter": 46.3166,
        "meta_mean_anomaly": 9.6501,
        "meta_ephemeris_type": 0,
        "meta_classification_type": "U",
        "meta_norad_cat_id": 34383,
        "meta_element_set_no": 999,
        "meta_rev_at_epoch": 89176,
        "meta_bstar": 0.0022610415,
        "meta_mean_motion_dot": 0.00036258,
        "meta_mean_motion_ddot": 0,
        "tle_line1": "1 34383U 93036PY  25350.88885770  .00036258  00000+0  22610-2 0  9994",
        "tle_line2": "2 34383  74.0224 289.1407 0002710  46.3166   9.6501 15.09361567891764"
      },
      "geometry": {
        "type": "Point",
        "coordinates": [
          6.764762401709268,
          73.6991978622344
        ]
      }
    },
    {
      "type": "Feature",
      "properties": {
        "norad_id": 34387,
        "name": "COSMOS 2251 DEB",
        "group": "cosmos-2251-debris",
        "lat": 31.361695016254668,
        "lon": -146.52003114558002,
        "alt_km": 745.2530896509343,
        "timestamp": "2025-12-17T07:00:47.303586+00:00",
        "meta_object_name": "COSMOS 2251 DEB",
        "meta_object_id": "1993-036QC",
        "meta_epoch": "2025-12-16T16:09:32.488416",
        "meta_mean_motion": 14.4382937,
        "meta_eccentricity": 0.00387986,
        "meta_inclination": 74.0391,
        "meta_ra_of_asc_node": 204.5845,
        "meta_arg_of_pericenter": 300.8556,
        "meta_mean_anomaly": 115.8479,
        "meta_ephemeris_type": 0,
        "meta_classification_type": "U",
        "meta_norad_cat_id": 34387,
        "meta_element_set_no": 999,
        "meta_rev_at_epoch": 88238,
        "meta_bstar": 0.00027401437,
        "meta_mean_motion_dot": 9.15e-06,
        "meta_mean_motion_ddot": 0,
        "tle_line1": "1 34387U 93036QC  25350.67329269  .00000915  00000+0  27401-3 0  9996",
        "tle_line2": "2 34387  74.0391 204.5845 0038798 300.8556 115.8479 14.43829370882386"
      },
      "geometry": {
        "type": "Point",
        "coordinates": [
          -146.52003114558002,
          31.361695016254668
        ]
      }
    },
    {
      "type": "Feature",
      "properties": {
        "norad_id": 34388,
        "name": "COSMOS 2251 DEB",
        "group": "cosmos-2251-debris",
        "lat": 67.65347779454305,
        "lon": -9.558157993967761,
        "alt_km": 729.8034071374304,
        "timestamp": "2025-12-17T07:00:47.303605+00:00",
        "meta_object_name": "COSMOS 2251 DEB",
        "meta_object_id": "1993-036QD",
        "meta_epoch": "2025-12-16T17:33:58.605120",
        "meta_mean_motion": 14.49386077,
        "meta_eccentricity": 0.00139493,
        "meta_inclination": 74.0386,
        "meta_ra_of_asc_node": 215.6173,
        "meta_arg_of_pericenter": 263.5791,
        "meta_mean_anomaly": 160.0286,
        "meta_ephemeris_type": 0,
        "meta_classification_type": "U",
        "meta_norad_cat_id": 34388,
        "meta_element_set_no": 999,
        "meta_rev_at_epoch": 88213,
        "meta_bstar": 0.000498496,
        "meta_mean_motion_dot": 1.881e-05,
        "meta_mean_motion_ddot": 0,
        "tle_line1": "1 34388U 93036QD  25350.73192830  .00001881  00000+0  49850-3 0  9991",
        "tle_line2": "2 34388  74.0386 215.6173 0013949 263.5791 160.0286 14.49386077882134"
      },
      "geometry": {
        "type": "Point",
        "coordinates": [
          -9.558157993967761,
          67.65347779454305
        ]
      }
    }
  ]
}